<?xml version="1.0" encoding="UTF-8"?>
<ndm xmlns:xsi="http://www.w3.org/2001/XMLSchema-instance" xsi:noNamespaceSchemaLocation="https://sanaregistry.org/r/ndmxml_unqualified/ndmxml-2.0.0-master-2.0.xsd">
<omm id="CCSDS_OMM_VERS" version="2.0">
<header><CREATION_DATE/><ORIGINATOR/></header><body><segment><metadata><OBJECT_NAME>ONEWEB-0340</OBJECT_NAME><OBJECT_ID>2021-083W</OBJECT_ID><CENTER_NAME>EARTH</CENTER_NAME><REF_FRAME>TEME</REF_FRAME><TIME_SYSTEM>UTC</TIME_SYSTEM><MEAN_ELEMENT_THEORY>SGP4</MEAN_ELEMENT_THEORY></metadata><data><meanElements><EPOCH>2024-04-19T02:16:03.237888</EPOCH><MEAN_MOTION>13.18686853</MEAN_MOTION><ECCENTRICITY>.0002155</ECCENTRICITY><INCLINATION>87.9134</INCLINATION><RA_OF_ASC_NODE>132.5297</RA_OF_ASC_NODE><ARG_OF_PERICENTER>88.6548</ARG_OF_PERICENTER><MEAN_ANOMALY>271.4831</MEAN_ANOMALY></meanElements><tleParameters><EPHEMERIS_TYPE>0</EPHEMERIS_TYPE><CLASSIFICATION_TYPE>U</CLASSIFICATION_TYPE><NORAD_CAT_ID>49206</NORAD_CAT_ID><ELEMENT_SET_NO>999</ELEMENT_SET_NO><REV_AT_EPOCH>12726</REV_AT_EPOCH><BSTAR>.28582E-3</BSTAR><MEAN_MOTION_DOT>.126E-5</MEAN_MOTION_DOT><MEAN_MOTION_DDOT>0</MEAN_MOTION_DDOT></tleParameters></data></segment></body></omm>
<omm id="CCSDS_OMM_VERS" version="2.0">
<header><CREATION_DATE/><ORIGINATOR/></header><body><segment><metadata><OBJECT_NAME>ONEWEB-0341</OBJECT_NAME><OBJECT_ID>2021-083X</OBJECT_ID><CENTER_NAME>EARTH</CENTER_NAME><REF_FRAME>TEME</REF_FRAME><TIME_SYSTEM>UTC</TIME_SYSTEM><MEAN_ELEMENT_THEORY>SGP4</MEAN_ELEMENT_THEORY></metadata><data><meanElements><EPOCH>2024-04-19T02:27:27.034272</EPOCH><MEAN_MOTION>13.18685899</MEAN_MOTION><ECCENTRICITY>.0002639</ECCENTRICITY><INCLINATION>87.9133</INCLINATION><RA_OF_ASC_NODE>132.5428</RA_OF_ASC_NODE><ARG_OF_PERICENTER>103.4890</ARG_OF_PERICENTER><MEAN_ANOMALY>256.6536</MEAN_ANOMALY></meanElements><tleParameters><EPHEMERIS_TYPE>0</EPHEMERIS_TYPE><CLASSIFICATION_TYPE>U</CLASSIFICATION_TYPE><NORAD_CAT_ID>49207</NORAD_CAT_ID><ELEMENT_SET_NO>999</ELEMENT_SET_NO><REV_AT_EPOCH>12728</REV_AT_EPOCH><BSTAR>.22649E-3</BSTAR><MEAN_MOTION_DOT>.102E-5</MEAN_MOTION_DOT><MEAN_MOTION_DDOT>0</MEAN_MOTION_DDOT></tleParameters></data></segment></body></omm>
<omm id="CCSDS_OMM_VERS" version="2.0">
<header><CREATION_DATE/><ORIGINATOR/></header><body><segment><metadata><OBJECT_NAME>ONEWEB-0342</OBJECT_NAME><OBJECT_ID>2021-083Y</OBJECT_ID><CENTER_NAME>EARTH</CENTER_NAME><REF_FRAME>TEME</REF_FRAME><TIME_SYSTEM>UTC</TIME_SYSTEM><MEAN_ELEMENT_THEORY>SGP4</MEAN_ELEMENT_THEORY></metadata><data><meanElements><EPOCH>2024-04-18T21:20:40.162272</EPOCH><MEAN_MOTION>13.20773789</MEAN_MOTION><ECCENTRICITY>.0001786</ECCENTRICITY><INCLINATION>87.9169</INCLINATION><RA_OF_ASC_NODE>71.5292</RA_OF_ASC_NODE><ARG_OF_PERICENTER>86.4640</ARG_OF_PERICENTER><MEAN_ANOMALY>273.6697</MEAN_ANOMALY></meanElements><tleParameters><EPHEMERIS_TYPE>0</EPHEMERIS_TYPE><CLASSIFICATION_TYPE>U</CLASSIFICATION_TYPE><NORAD_CAT_ID>49208</NORAD_CAT_ID><ELEMENT_SET_NO>999</ELEMENT_SET_NO><REV_AT_EPOCH>13259</REV_AT_EPOCH><BSTAR>.13601E-3</BSTAR><MEAN_MOTION_DOT>.68E-6</MEAN_MOTION_DOT><MEAN_MOTION_DDOT>0</MEAN_MOTION_DDOT></tleParameters></data></segment></body></omm>
<omm id="CCSDS_OMM_VERS" version="2.0">
<header><CREATION_DATE/><ORIGINATOR/></header><body><segment><metadata><OBJECT_NAME>ONEWEB-0343</OBJECT_NAME><OBJECT_ID>2021-083Z</OBJECT_ID><CENTER_NAME>EARTH</CENTER_NAME><REF_FRAME>TEME</REF_FRAME><TIME_SYSTEM>UTC</TIME_SYSTEM><MEAN_ELEMENT_THEORY>SGP4</MEAN_ELEMENT_THEORY></metadata><data><meanElements><EPOCH>2024-04-19T13:16:09.414336</EPOCH><MEAN_MOTION>13.18685372</MEAN_MOTION><ECCENTRICITY>.0002425</ECCENTRICITY><INCLINATION>87.9123</INCLINATION><RA_OF_ASC_NODE>132.4636</RA_OF_ASC_NODE><ARG_OF_PERICENTER>103.4785</ARG_OF_PERICENTER><MEAN_ANOMALY>256.6617</MEAN_ANOMALY></meanElements><tleParameters><EPHEMERIS_TYPE>0</EPHEMERIS_TYPE><CLASSIFICATION_TYPE>U</CLASSIFICATION_TYPE><NORAD_CAT_ID>49209</NORAD_CAT_ID><ELEMENT_SET_NO>999</ELEMENT_SET_NO><REV_AT_EPOCH>12739</REV_AT_EPOCH><BSTAR>-.78644E-3</BSTAR><MEAN_MOTION_DOT>-.297E-5</MEAN_MOTION_DOT><MEAN_MOTION_DDOT>0</MEAN_MOTION_DDOT></tleParameters></data></segment></body></omm>
<omm id="CCSDS_OMM_VERS" version="2.0">
<header><CREATION_DATE/><ORIGINATOR/></header><body><segment><metadata><OBJECT_NAME>ONEWEB-0344</OBJECT_NAME><OBJECT_ID>2021-083AA</OBJECT_ID><CENTER_NAME>EARTH</CENTER_NAME><REF_FRAME>TEME</REF_FRAME><TIME_SYSTEM>UTC</TIME_SYSTEM><MEAN_ELEMENT_THEORY>SGP4</MEAN_ELEMENT_THEORY></metadata><data><meanElements><EPOCH>2024-04-18T12:17:25.993824</EPOCH><MEAN_MOTION>13.13468376</MEAN_MOTION><ECCENTRICITY>.0002177</ECCENTRICITY><INCLINATION>87.8895</INCLINATION><RA_OF_ASC_NODE>117.4468</RA_OF_ASC_NODE><ARG_OF_PERICENTER>86.3627</ARG_OF_PERICENTER><MEAN_ANOMALY>273.7751</MEAN_ANOMALY></meanElements><tleParameters><EPHEMERIS_TYPE>0</EPHEMERIS_TYPE><CLASSIFICATION_TYPE>U</CLASSIFICATION_TYPE><NORAD_CAT_ID>49210</NORAD_CAT_ID><ELEMENT_SET_NO>999</ELEMENT_SET_NO><REV_AT_EPOCH>12723</REV_AT_EPOCH><BSTAR>-.76385E-3</BSTAR><MEAN_MOTION_DOT>-.266E-5</MEAN_MOTION_DOT><MEAN_MOTION_DDOT>0</MEAN_MOTION_DDOT></tleParameters></data></segment></body></omm>
<omm id="CCSDS_OMM_VERS" version="2.0">
<header><CREATION_DATE/><ORIGINATOR/></header><body><segment><metadata><OBJECT_NAME>ONEWEB-0345</OBJECT_NAME><OBJECT_ID>2021-083AB</OBJECT_ID><CENTER_NAME>EARTH</CENTER_NAME><REF_FRAME>TEME</REF_FRAME><TIME_SYSTEM>UTC</TIME_SYSTEM><MEAN_ELEMENT_THEORY>SGP4</MEAN_ELEMENT_THEORY></metadata><data><meanElements><EPOCH>2024-04-19T01:30:26.725248</EPOCH><MEAN_MOTION>13.13468628</MEAN_MOTION><ECCENTRICITY>.0002551</ECCENTRICITY><INCLINATION>87.8891</INCLINATION><RA_OF_ASC_NODE>117.3141</RA_OF_ASC_NODE><ARG_OF_PERICENTER>89.2350</ARG_OF_PERICENTER><MEAN_ANOMALY>270.9071</MEAN_ANOMALY></meanElements><tleParameters><EPHEMERIS_TYPE>0</EPHEMERIS_TYPE><CLASSIFICATION_TYPE>U</CLASSIFICATION_TYPE><NORAD_CAT_ID>49211</NORAD_CAT_ID><ELEMENT_SET_NO>999</ELEMENT_SET_NO><REV_AT_EPOCH>12861</REV_AT_EPOCH><BSTAR>-.16097E-5</BSTAR><MEAN_MOTION_DOT>.12E-6</MEAN_MOTION_DOT><MEAN_MOTION_DDOT>0</MEAN_MOTION_DDOT></tleParameters></data></segment></body></omm>
<omm id="CCSDS_OMM_VERS" version="2.0">
<header><CREATION_DATE/><ORIGINATOR/></header><body><segment><metadata><OBJECT_NAME>ONEWEB-0346</OBJECT_NAME><OBJECT_ID>2021-083AC</OBJECT_ID><CENTER_NAME>EARTH</CENTER_NAME><REF_FRAME>TEME</REF_FRAME><TIME_SYSTEM>UTC</TIME_SYSTEM><MEAN_ELEMENT_THEORY>SGP4</MEAN_ELEMENT_THEORY></metadata><data><meanElements><EPOCH>2024-04-19T02:34:15.962016</EPOCH><MEAN_MOTION>13.18686539</MEAN_MOTION><ECCENTRICITY>.0002287</ECCENTRICITY><INCLINATION>87.9133</INCLINATION><RA_OF_ASC_NODE>132.5503</RA_OF_ASC_NODE><ARG_OF_PERICENTER>81.8119</ARG_OF_PERICENTER><MEAN_ANOMALY>278.3272</MEAN_ANOMALY></meanElements><tleParameters><EPHEMERIS_TYPE>0</EPHEMERIS_TYPE><CLASSIFICATION_TYPE>U</CLASSIFICATION_TYPE><NORAD_CAT_ID>49212</NORAD_CAT_ID><ELEMENT_SET_NO>999</ELEMENT_SET_NO><REV_AT_EPOCH>12727</REV_AT_EPOCH><BSTAR>.23577E-3</BSTAR><MEAN_MOTION_DOT>.106E-5</MEAN_MOTION_DOT><MEAN_MOTION_DDOT>0</MEAN_MOTION_DDOT></tleParameters></data></segment></body></omm>
<omm id="CCSDS_OMM_VERS" version="2.0">
<header><CREATION_DATE/><ORIGINATOR/></header><body><segment><metadata><OBJECT_NAME>ONEWEB-0348</OBJECT_NAME><OBJECT_ID>2021-083AD</OBJECT_ID><CENTER_NAME>EARTH</CENTER_NAME><REF_FRAME>TEME</REF_FRAME><TIME_SYSTEM>UTC</TIME_SYSTEM><MEAN_ELEMENT_THEORY>SGP4</MEAN_ELEMENT_THEORY></metadata><data><meanElements><EPOCH>2024-04-18T22:56:08.425248</EPOCH><MEAN_MOTION>13.20769965</MEAN_MOTION><ECCENTRICITY>.000268</ECCENTRICITY><INCLINATION>87.9179</INCLINATION><RA_OF_ASC_NODE>71.4832</RA_OF_ASC_NODE><ARG_OF_PERICENTER>79.6302</ARG_OF_PERICENTER><MEAN_ANOMALY>280.5133</MEAN_ANOMALY></meanElements><tleParameters><EPHEMERIS_TYPE>0</EPHEMERIS_TYPE><CLASSIFICATION_TYPE>U</CLASSIFICATION_TYPE><NORAD_CAT_ID>49213</NORAD_CAT_ID><ELEMENT_SET_NO>999</ELEMENT_SET_NO><REV_AT_EPOCH>13263</REV_AT_EPOCH><BSTAR>-.45946E-4</BSTAR><MEAN_MOTION_DOT>-.6E-7</MEAN_MOTION_DOT><MEAN_MOTION_DDOT>0</MEAN_MOTION_DDOT></tleParameters></data></segment></body></omm>
<omm id="CCSDS_OMM_VERS" version="2.0">
<header><CREATION_DATE/><ORIGINATOR/></header><body><segment><metadata><OBJECT_NAME>ONEWEB-0350</OBJECT_NAME><OBJECT_ID>2021-083AE</OBJECT_ID><CENTER_NAME>EARTH</CENTER_NAME><REF_FRAME>TEME</REF_FRAME><TIME_SYSTEM>UTC</TIME_SYSTEM><MEAN_ELEMENT_THEORY>SGP4</MEAN_ELEMENT_THEORY></metadata><data><meanElements><EPOCH>2024-04-19T01:44:10.643424</EPOCH><MEAN_MOTION>13.13470254</MEAN_MOTION><ECCENTRICITY>.000238</ECCENTRICITY><INCLINATION>87.8890</INCLINATION><RA_OF_ASC_NODE>117.3036</RA_OF_ASC_NODE><ARG_OF_PERICENTER>90.5079</ARG_OF_PERICENTER><MEAN_ANOMALY>269.6323</MEAN_ANOMALY></meanElements><tleParameters><EPHEMERIS_TYPE>0</EPHEMERIS_TYPE><CLASSIFICATION_TYPE>U</CLASSIFICATION_TYPE><NORAD_CAT_ID>49214</NORAD_CAT_ID><ELEMENT_SET_NO>999</ELEMENT_SET_NO><REV_AT_EPOCH>12864</REV_AT_EPOCH><BSTAR>.60246E-3</BSTAR><MEAN_MOTION_DOT>.233E-5</MEAN_MOTION_DOT><MEAN_MOTION_DDOT>0</MEAN_MOTION_DDOT></tleParameters></data></segment></body></omm>

</ndm>
